[{"OBJECT_NAME":"STARLINK-3083","OBJECT_ID":"2021-082AE","EPOCH":"2026-03-09T16:37:39.607392","MEAN_MOTION":15.64475884,"ECCENTRICITY":0.00051971,"INCLINATION":69.9688,"RA_OF_ASC_NODE":173.5767,"ARG_OF_PERICENTER":238.8538,"MEAN_ANOMALY":121.2146,"EPHEMERIS_TYPE":0,"CLASSIFICATION_TYPE":"U","NORAD_CAT_ID":49158,"ELEMENT_SET_NO":999,"REV_AT_EPOCH":25005,"BSTAR":0.00056497056,"MEAN_MOTION_DOT":0.00054695,"MEAN_MOTION_DDOT":0},{"OBJECT_NAME":"STARLINK-36814","OBJECT_ID":"2026-036A","EPOCH":"2026-03-09T22:00:01.999584","MEAN_MOTION":15.74661974,"ECCENTRICITY":0.00015797,"INCLINATION":42.9995,"RA_OF_ASC_NODE":248.4785,"ARG_OF_PERICENTER":276.779,"MEAN_ANOMALY":148.1663,"EPHEMERIS_TYPE":0,"CLASSIFICATION_TYPE":"U","NORAD_CAT_ID":67904,"ELEMENT_SET_NO":999,"REV_AT_EPOCH":368,"BSTAR":-0.014123764,"MEAN_MOTION_DOT":-0.01861626,"MEAN_MOTION_DDOT":0}]
